ONEWEB-0319             
1 49105U 21075AG  24145.58296197 -.00000163  00000+0 -45238-3 0  9993
2 49105  87.9155 155.8880 0001143  88.3261 271.8002 13.17657038135356
ONEWEB-0323             
1 49106U 21075AH  24145.89507189  .00000271  00000+0  71675-3 0  9996
2 49106  87.8924 140.6406 0001980  73.6479 286.4867 13.12445019136747
ONEWEB-0329             
1 49107U 21075AJ  24145.74275348 -.00002867  00000+0 -74219-2 0  9991
2 49107  87.9184 155.8605 0000711 117.8597 242.2607 13.17629991135355
ONEWEB-0330             
1 49108U 21075AK  24145.74431197  .00000508  00000+0  12752-2 0  9990
2 49108  87.9165 155.8576 0000939  83.2917 276.8321 13.17655332135394
ONEWEB-0292             
1 49186U 21083A   24145.84405149 -.00000219  00000+0 -63488-3 0  9998
2 49186  87.8916 110.2092 0001940  85.2260 274.9090 13.13467644133323
ONEWEB-0303             
1 49187U 21083B   24145.47189633  .00000094  00000+0  20459-3 0  9995
2 49187  87.9127 125.4947 0001760  84.7035 275.4298 13.18687429130648
ONEWEB-0306             
1 49188U 21083C   24145.46241462  .00000076  00000+0  15995-3 0  9993
2 49188  87.9127 125.4842 0002221  87.4833 272.6554 13.18686978130688
ONEWEB-0307             
1 49189U 21083D   24145.83850045 -.00000126  00000+0 -37997-3 0  9992
2 49189  87.8917 110.2101 0002396  78.9234 281.2165 13.13467520133321
